{
  "type": "FeatureCollection",
  "features": [
    {
      "type": "Feature",
      "properties": {
        "name": "OK/D04",
        "type": "DANGER",
        "lowerFL": 0,
        "upperFL": 20
      },
      "geometry": {
        "type": "Polygon",
        "coordinates": [
          [
            [
              47.78416555555555,
              29.339166388888888
            ],
            [
              47.8175,
              29.353055833333336
            ],
            [
              47.823055000000004,
              29.464164722222222
            ],
            [
              47.82,
              29.464463055555555
            ],
            [
              47.808755,
              29.464111388888888
            ],
            [
              47.80865083333333,
              29.464107777777777
            ],
            [
              47.79714555555555,
              29.46305111111111
            ],
            [
              47.78569472222222,
              29.46129472222222
            ],
            [
              47.77451472222222,
              29.45885861111111
            ],
            [
              47.76344916666667,
              29.455730833333334
            ],
            [
              47.752675555555555,
              29.45193361111111
            ],
            [
              47.74301666666667,
              29.447826666666668
            ],
            [
              47.742039444444444,
              29.447398333333332
            ],
            [
              47.73999,
              29.44636
            ],
            [
              47.736423055555555,
              29.444557500000002
            ],
            [
              47.73220888888889,
              29.442446944444445
            ],
            [
              47.73189583333333,
              29.44226
            ],
            [
              47.72689472222223,
              29.439321944444444
            ],
            [
              47.722590833333335,
              29.436786944444446
            ],
            [
              47.71784777777778,
              29.433553888888888
            ],
            [
              47.71508111111111,
              29.431665000000002
            ],
            [
              47.71344222222223,
              29.430544166666667
            ],
            [
              47.71055194444445,
              29.42828527777778
            ],
            [
              47.704879444444444,
              29.423818333333333
            ],
            [
              47.70088444444445,
              29.420230555555555
            ],
            [
              47.69985,
              29.419278055555555
            ],
            [
              47.69888805555555,
              29.418409444444446
            ],
            [
              47.69784277777777,
              29.417460833333333
            ],
            [
              47.696907499999995,
              29.416607499999998
            ],
            [
              47.6954375,
              29.415110555555554
            ],
            [
              47.6932425,
              29.41282083333333
            ],
            [
              47.690261388888885,
              29.409720277777776
            ],
            [
              47.68934722222222,
              29.408765
            ],
            [
              47.68581472222222,
              29.404511666666664
            ],
            [
              47.68258611111111,
              29.400613888888888
            ],
            [
              47.68141222222222,
              29.3990275
            ],
            [
              47.67984527777777,
              29.3968175
            ],
            [
              47.78416555555555,
              29.339166388888888
            ]
          ]
        ]
      }
    },
    {
      "type": "Feature",
      "properties": {
        "name": "OK/D06",
        "type": "DANGER",
        "lowerFL": 0,
        "upperFL": 20
      },
      "geometry": {
        "type": "Polygon",
        "coordinates": [
          [
            [
              46.9925,
              29.278055555555554
            ],
            [
              47.11333333333334,
              29.278055555555554
            ],
            [
              47.11333333333334,
              29.379444444444445
            ],
            [
              46.9925,
              29.379444444444445
            ],
            [
              46.9925,
              29.278055555555554
            ]
          ]
        ]
      }
    },
    {
      "type": "Feature",
      "properties": {
        "name": "OK/D10",
        "type": "DANGER",
        "lowerFL": 0,
        "upperFL": 999
      },
      "geometry": {
        "type": "Polygon",
        "coordinates": [
          [
            [
              47.31194444444444,
              29.503055555555555
            ],
            [
              47.228611111111114,
              29.503055555555555
            ],
            [
              47.15083333333333,
              29.586388888888887
            ],
            [
              47.15083333333333,
              29.691944444444445
            ],
            [
              47.25083333333333,
              29.71972222222222
            ],
            [
              47.3675,
              29.628055555555555
            ],
            [
              47.3675,
              29.56222222222222
            ],
            [
              47.31194444444444,
              29.503055555555555
            ]
          ]
        ]
      }
    }
  ]
}